CCSDS_OMM_VERS = 2.0
CREATION_DATE  = 
ORIGINATOR     = 

OBJECT_NAME    = COSMOS 1933
OBJECT_ID      = 1988-020A
CENTER_NAME    = EARTH
REF_FRAME      = TEME
TIME_SYSTEM    = UTC
MEAN_ELEMENT_THEORY = SGP/SGP4

EPOCH          = 2026-02-09T15:22:04.973376
MEAN_MOTION    = 15.17741275
ECCENTRICITY   = .00031249
INCLINATION    = 82.5120
RA_OF_ASC_NODE = 278.6639
ARG_OF_PERICENTER = 316.2900
MEAN_ANOMALY   = 43.8086

EPHEMERIS_TYPE = 0
CLASSIFICATION_TYPE = U
NORAD_CAT_ID   = 18958
ELEMENT_SET_NO = 999
REV_AT_EPOCH   = 4597
BSTAR          = .17635047E-3
MEAN_MOTION_DOT = .3588E-4
MEAN_MOTION_DDOT = 0

CCSDS_OMM_VERS = 2.0
CREATION_DATE  = 
ORIGINATOR     = 

OBJECT_NAME    = SL-3 R/B
OBJECT_ID      = 1988-032B
CENTER_NAME    = EARTH
REF_FRAME      = TEME
TIME_SYSTEM    = UTC
MEAN_ELEMENT_THEORY = SGP/SGP4

EPOCH          = 2026-02-09T13:14:15.565920
MEAN_MOTION    = 15.19544088
ECCENTRICITY   = .00253253
INCLINATION    = 97.5154
RA_OF_ASC_NODE = 23.9201
ARG_OF_PERICENTER = 336.3148
MEAN_ANOMALY   = 23.6919

EPHEMERIS_TYPE = 0
CLASSIFICATION_TYPE = U
NORAD_CAT_ID   = 19046
ELEMENT_SET_NO = 999
REV_AT_EPOCH   = 4783
BSTAR          = .3198632E-3
MEAN_MOTION_DOT = .6787E-4
MEAN_MOTION_DDOT = 0

CCSDS_OMM_VERS = 2.0
CREATION_DATE  = 
ORIGINATOR     = 

OBJECT_NAME    = SL-16 R/B
OBJECT_ID      = 1988-039B
CENTER_NAME    = EARTH
REF_FRAME      = TEME
TIME_SYSTEM    = UTC
MEAN_ELEMENT_THEORY = SGP/SGP4

EPOCH          = 2026-02-09T14:00:42.163776
MEAN_MOTION    = 14.19611540
ECCENTRICITY   = .00210265
INCLINATION    = 71.0149
RA_OF_ASC_NODE = 127.9805
ARG_OF_PERICENTER = 17.2049
MEAN_ANOMALY   = 342.9784

EPHEMERIS_TYPE = 0
CLASSIFICATION_TYPE = U
NORAD_CAT_ID   = 19120
ELEMENT_SET_NO = 999
REV_AT_EPOCH   = 95439
BSTAR          = -.6589651E-5
MEAN_MOTION_DOT = -.62E-6
MEAN_MOTION_DDOT = 0

CCSDS_OMM_VERS = 2.0
CREATION_DATE  = 
ORIGINATOR     = 

OBJECT_NAME    = COSMOS 1953
OBJECT_ID      = 1988-050A
CENTER_NAME    = EARTH
REF_FRAME      = TEME
TIME_SYSTEM    = UTC
MEAN_ELEMENT_THEORY = SGP/SGP4

EPOCH          = 2026-02-09T11:17:31.528320
MEAN_MOTION    = 15.27954127
ECCENTRICITY   = .00107065
INCLINATION    = 82.5093
RA_OF_ASC_NODE = 186.6091
ARG_OF_PERICENTER = 219.7358
MEAN_ANOMALY   = 140.3099

EPHEMERIS_TYPE = 0
CLASSIFICATION_TYPE = U
NORAD_CAT_ID   = 19210
ELEMENT_SET_NO = 999
REV_AT_EPOCH   = 3347
BSTAR          = .4416538E-3
MEAN_MOTION_DOT = .121E-3
MEAN_MOTION_DDOT = 0

CCSDS_OMM_VERS = 2.0
CREATION_DATE  = 
ORIGINATOR     = 

OBJECT_NAME    = SL-8 R/B
OBJECT_ID      = 1988-053B
CENTER_NAME    = EARTH
REF_FRAME      = TEME
TIME_SYSTEM    = UTC
MEAN_ELEMENT_THEORY = SGP/SGP4

EPOCH          = 2026-02-09T15:29:55.246848
MEAN_MOTION    = 14.38898751
ECCENTRICITY   = .00204473
INCLINATION    = 74.0480
RA_OF_ASC_NODE = 164.1530
ARG_OF_PERICENTER = 348.5121
MEAN_ANOMALY   = 113.8136

EPHEMERIS_TYPE = 0
CLASSIFICATION_TYPE = U
NORAD_CAT_ID   = 19257
ELEMENT_SET_NO = 999
REV_AT_EPOCH   = 97256
BSTAR          = .10237366E-3
MEAN_MOTION_DOT = .29E-5
MEAN_MOTION_DDOT = 0

CCSDS_OMM_VERS = 2.0
CREATION_DATE  = 
ORIGINATOR     = 

OBJECT_NAME    = COSMOS 1975
OBJECT_ID      = 1988-093A
CENTER_NAME    = EARTH
REF_FRAME      = TEME
TIME_SYSTEM    = UTC
MEAN_ELEMENT_THEORY = SGP/SGP4

EPOCH          = 2026-02-09T08:46:24.039264
MEAN_MOTION    = 15.27570696
ECCENTRICITY   = .0010299
INCLINATION    = 82.5221
RA_OF_ASC_NODE = 146.0987
ARG_OF_PERICENTER = 269.4716
MEAN_ANOMALY   = 90.5343

EPHEMERIS_TYPE = 0
CLASSIFICATION_TYPE = U
NORAD_CAT_ID   = 19573
ELEMENT_SET_NO = 999
REV_AT_EPOCH   = 1508
BSTAR          = .40277202E-3
MEAN_MOTION_DOT = .10908E-3
MEAN_MOTION_DDOT = 0

CCSDS_OMM_VERS = 2.0
CREATION_DATE  = 
ORIGINATOR     = 

OBJECT_NAME    = SL-14 R/B
OBJECT_ID      = 1988-093B
CENTER_NAME    = EARTH
REF_FRAME      = TEME
TIME_SYSTEM    = UTC
MEAN_ELEMENT_THEORY = SGP/SGP4

EPOCH          = 2026-02-09T14:04:45.245856
MEAN_MOTION    = 14.85624512
ECCENTRICITY   = .00219577
INCLINATION    = 82.5280
RA_OF_ASC_NODE = 68.4327
ARG_OF_PERICENTER = 128.5081
MEAN_ANOMALY   = 348.7256

EPHEMERIS_TYPE = 0
CLASSIFICATION_TYPE = U
NORAD_CAT_ID   = 19574
ELEMENT_SET_NO = 999
REV_AT_EPOCH   = 99686
BSTAR          = .53033462E-4
MEAN_MOTION_DOT = .486E-5
MEAN_MOTION_DDOT = 0

CCSDS_OMM_VERS = 2.0
CREATION_DATE  = 
ORIGINATOR     = 

OBJECT_NAME    = SL-16 R/B
OBJECT_ID      = 1988-102B
CENTER_NAME    = EARTH
REF_FRAME      = TEME
TIME_SYSTEM    = UTC
MEAN_ELEMENT_THEORY = SGP/SGP4

EPOCH          = 2026-02-09T13:55:37.251264
MEAN_MOTION    = 14.16147623
ECCENTRICITY   = .00124931
INCLINATION    = 70.9974
RA_OF_ASC_NODE = 210.6376
ARG_OF_PERICENTER = 47.9713
MEAN_ANOMALY   = 312.2472

EPHEMERIS_TYPE = 0
CLASSIFICATION_TYPE = U
NORAD_CAT_ID   = 19650
ELEMENT_SET_NO = 999
REV_AT_EPOCH   = 92291
BSTAR          = .15927771E-3
MEAN_MOTION_DOT = .268E-5
MEAN_MOTION_DDOT = 0

CCSDS_OMM_VERS = 2.0
CREATION_DATE  = 
ORIGINATOR     = 

OBJECT_NAME    = INTERCOSMOS 24
OBJECT_ID      = 1989-080A
CENTER_NAME    = EARTH
REF_FRAME      = TEME
TIME_SYSTEM    = UTC
MEAN_ELEMENT_THEORY = SGP/SGP4

EPOCH          = 2026-02-09T14:32:13.304256
MEAN_MOTION    = 12.59519208
ECCENTRICITY   = .11879996
INCLINATION    = 82.6067
RA_OF_ASC_NODE = 122.6841
ARG_OF_PERICENTER = 358.0398
MEAN_ANOMALY   = 1.6238

EPHEMERIS_TYPE = 0
CLASSIFICATION_TYPE = U
NORAD_CAT_ID   = 20261
ELEMENT_SET_NO = 999
REV_AT_EPOCH   = 66326
BSTAR          = .16709673E-3
MEAN_MOTION_DOT = .578E-5
MEAN_MOTION_DDOT = 0

CCSDS_OMM_VERS = 2.0
CREATION_DATE  = 
ORIGINATOR     = 

OBJECT_NAME    = SL-14 R/B
OBJECT_ID      = 1989-080C
CENTER_NAME    = EARTH
REF_FRAME      = TEME
TIME_SYSTEM    = UTC
MEAN_ELEMENT_THEORY = SGP/SGP4

EPOCH          = 2026-02-09T09:20:51.524736
MEAN_MOTION    = 12.50459058
ECCENTRICITY   = .12294667
INCLINATION    = 82.5945
RA_OF_ASC_NODE = 191.3531
ARG_OF_PERICENTER = 249.4635
MEAN_ANOMALY   = 97.0512

EPHEMERIS_TYPE = 0
CLASSIFICATION_TYPE = U
NORAD_CAT_ID   = 20262
ELEMENT_SET_NO = 999
REV_AT_EPOCH   = 65661
BSTAR          = .15216679E-3
MEAN_MOTION_DOT = .502E-5
MEAN_MOTION_DDOT = 0

CCSDS_OMM_VERS = 2.0
CREATION_DATE  = 
ORIGINATOR     = 

OBJECT_NAME    = DELTA 1 R/B
OBJECT_ID      = 1989-089B
CENTER_NAME    = EARTH
REF_FRAME      = TEME
TIME_SYSTEM    = UTC
MEAN_ELEMENT_THEORY = SGP/SGP4

EPOCH          = 2026-02-09T14:47:23.247456
MEAN_MOTION    = 14.50639519
ECCENTRICITY   = .00682923
INCLINATION    = 97.0725
RA_OF_ASC_NODE = 252.5163
ARG_OF_PERICENTER = 210.4093
MEAN_ANOMALY   = 149.3137

EPHEMERIS_TYPE = 0
CLASSIFICATION_TYPE = U
NORAD_CAT_ID   = 20323
ELEMENT_SET_NO = 999
REV_AT_EPOCH   = 89166
BSTAR          = .11477113E-3
MEAN_MOTION_DOT = .428E-5
MEAN_MOTION_DDOT = 0

CCSDS_OMM_VERS = 2.0
CREATION_DATE  = 
ORIGINATOR     = 

OBJECT_NAME    = ARIANE 40 R/B
OBJECT_ID      = 1990-005H
CENTER_NAME    = EARTH
REF_FRAME      = TEME
TIME_SYSTEM    = UTC
MEAN_ELEMENT_THEORY = SGP/SGP4

EPOCH          = 2026-02-09T14:23:56.944032
MEAN_MOTION    = 14.39851501
ECCENTRICITY   = .00089579
INCLINATION    = 98.3147
RA_OF_ASC_NODE = 102.0897
ARG_OF_PERICENTER = 291.3392
MEAN_ANOMALY   = 68.6841

EPHEMERIS_TYPE = 0
CLASSIFICATION_TYPE = U
NORAD_CAT_ID   = 20443
ELEMENT_SET_NO = 999
REV_AT_EPOCH   = 88876
BSTAR          = .10933175E-3
MEAN_MOTION_DOT = .301E-5
MEAN_MOTION_DDOT = 0

