COSMOS 1933             
1 18958U 88020A   26040.64033534  .00003588  00000+0  17635-3 0  9997
2 18958  82.5120 278.6639 0003124 316.2900  43.8086 15.17741275 45977
SL-3 R/B                
1 19046U 88032B   26040.55156905  .00006787  00000+0  31986-3 0  9996
2 19046  97.5154  23.9201 0025325 336.3148  23.6919 15.19544088 47832
SL-16 R/B               
1 19120U 88039B   26040.58382134 -.00000062  00000+0 -65897-5 0  9996
2 19120  71.0149 127.9805 0021026  17.2049 342.9784 14.19611540954392
COSMOS 1953             
1 19210U 88050A   26040.47050380  .00012100  00000+0  44165-3 0  9999
2 19210  82.5093 186.6091 0010706 219.7358 140.3099 15.27954127 33478
SL-8 R/B                
1 19257U 88053B   26040.64577832  .00000290  00000+0  10237-3 0  9998
2 19257  74.0480 164.1530 0020447 348.5121 113.8136 14.38898751972566
COSMOS 1975             
1 19573U 88093A   26040.36555601  .00010908  00000+0  40277-3 0  9996
2 19573  82.5221 146.0987 0010299 269.4716  90.5343 15.27570696 15084
SL-14 R/B               
1 19574U 88093B   26040.58663479  .00000486  00000+0  53033-4 0  9999
2 19574  82.5280  68.4327 0021957 128.5081 348.7256 14.85624512996863
SL-16 R/B               
1 19650U 88102B   26040.58029226  .00000268  00000+0  15928-3 0  9999
2 19650  70.9974 210.6376 0012493  47.9713 312.2472 14.16147623922913
INTERCOSMOS 24          
1 20261U 89080A   26040.60570954  .00000578  00000+0  16710-3 0  9991
2 20261  82.6067 122.6841 1187999 358.0398   1.6238 12.59519208663261
SL-14 R/B               
1 20262U 89080C   26040.38948524  .00000502  00000+0  15217-3 0  9997
2 20262  82.5945 191.3531 1229466 249.4635  97.0512 12.50459058656610
DELTA 1 R/B             
1 20323U 89089B   26040.61624129  .00000428  00000+0  11477-3 0  9993
2 20323  97.0725 252.5163 0068292 210.4093 149.3137 14.50639519891663
ARIANE 40 R/B           
1 20443U 90005H   26040.59996463  .00000301  00000+0  10933-3 0  9992
2 20443  98.3147 102.0897 0008957 291.3392  68.6841 14.39851501888769
